[
    {
        "Altitude(m)": 702743.0924864459,
        "Argument of Periapsis(deg)": 0.011390121186627068,
        "Eccentricity": 0.0,
        "Inclination(deg)": 45.0,
        "Latitude(deg)": 8.123381329736596,
        "Longitude(deg)": 142.38794127668052,
        "Mean Anomaly(deg)": 11.533216647480824,
        "RAAN(deg)": 234.98924805854176,
        "Satellite Name": "Constellation 1 1034",
        "Satellite Number": 1034,
        "Semi-Major Axis(m)": 7083131.272910544,
        "Time(s)": 190
    },
    {
        "Altitude(m)": 702741.4015842733,
        "Argument of Periapsis(deg)": 0.011450069192872472,
        "Eccentricity": 0.0,
        "Inclination(deg)": 45.0,
        "Latitude(deg)": 8.166159089411906,
        "Longitude(deg)": 142.4275727512565,
        "Mean Anomaly(deg)": 11.59391778773071,
        "RAAN(deg)": 234.9891914693762,
        "Satellite Name": "Constellation 1 1034",
        "Satellite Number": 1034,
        "Semi-Major Axis(m)": 7083131.272910544,
        "Time(s)": 191
    },
    {
        "Altitude(m)": 702739.730882145,
        "Argument of Periapsis(deg)": 0.01151001719911788,
        "Eccentricity": 0.0,
        "Inclination(deg)": 45.0,
        "Latitude(deg)": 8.208932080526496,
        "Longitude(deg)": 142.46721357908348,
        "Mean Anomaly(deg)": 11.654618927980597,
        "RAAN(deg)": 234.98913488021066,
        "Satellite Name": "Constellation 1 1034",
        "Satellite Number": 1034,
        "Semi-Major Axis(m)": 7083131.272910544,
        "Time(s)": 192
    },
    {
        "Altitude(m)": 702738.0803689919,
        "Argument of Periapsis(deg)": 0.011569965205363285,
        "Eccentricity": 0.0,
        "Inclination(deg)": 45.0,
        "Latitude(deg)": 8.251700276422133,
        "Longitude(deg)": 142.506863642345,
        "Mean Anomaly(deg)": 11.715320068230533,
        "RAAN(deg)": 234.9890782910451,
        "Satellite Name": "Constellation 1 1034",
        "Satellite Number": 1034,
        "Semi-Major Axis(m)": 7083131.272910544,
        "Time(s)": 193
    },
    {
        "Altitude(m)": 702736.4500336729,
        "Argument of Periapsis(deg)": 0.01162991321160869,
        "Eccentricity": 0.0,
        "Inclination(deg)": 45.0,
        "Latitude(deg)": 8.29446365042181,
        "Longitude(deg)": 142.54652332753565,
        "Mean Anomaly(deg)": 11.77602120848042,
        "RAAN(deg)": 234.98902170187955,
        "Satellite Name": "Constellation 1 1034",
        "Satellite Number": 1034,
        "Semi-Major Axis(m)": 7083131.272910544,
        "Time(s)": 194
    },
    {
        "Altitude(m)": 702734.8398649421,
        "Argument of Periapsis(deg)": 0.011689861217854095,
        "Eccentricity": 0.0,
        "Inclination(deg)": 45.0,
        "Latitude(deg)": 8.337222175831055,
        "Longitude(deg)": 142.5861925168788,
        "Mean Anomaly(deg)": 11.836722348730305,
        "RAAN(deg)": 234.9889651127139,
        "Satellite Name": "Constellation 1 1034",
        "Satellite Number": 1034,
        "Semi-Major Axis(m)": 7083131.272910544,
        "Time(s)": 195
    },
    {
        "Altitude(m)": 702733.2498514829,
        "Argument of Periapsis(deg)": 0.0117498092240995,
        "Eccentricity": 0.0,
        "Inclination(deg)": 45.0,
        "Latitude(deg)": 8.379975825936876,
        "Longitude(deg)": 142.62587126071537,
        "Mean Anomaly(deg)": 11.897423488980193,
        "RAAN(deg)": 234.98890852354836,
        "Satellite Name": "Constellation 1 1034",
        "Satellite Number": 1034,
        "Semi-Major Axis(m)": 7083131.272910544,
        "Time(s)": 196
    },
    {
        "Altitude(m)": 702731.6799818798,
        "Argument of Periapsis(deg)": 0.011809757230344905,
        "Eccentricity": 0.0,
        "Inclination(deg)": 45.0,
        "Latitude(deg)": 8.422724574007917,
        "Longitude(deg)": 142.6655596094062,
        "Mean Anomaly(deg)": 11.95812462923013,
        "RAAN(deg)": 234.9888519343828,
        "Satellite Name": "Constellation 1 1034",
        "Satellite Number": 1034,
        "Semi-Major Axis(m)": 7083131.272910544,
        "Time(s)": 197
    },
    {
        "Altitude(m)": 702730.1302446341,
        "Argument of Periapsis(deg)": 0.011869705236590313,
        "Eccentricity": 0.0,
        "Inclination(deg)": 45.0,
        "Latitude(deg)": 8.46546839329438,
        "Longitude(deg)": 142.70525761333272,
        "Mean Anomaly(deg)": 12.018825769480017,
        "RAAN(deg)": 234.98879534521726,
        "Satellite Name": "Constellation 1 1034",
        "Satellite Number": 1034,
        "Semi-Major Axis(m)": 7083131.272910544,
        "Time(s)": 198
    },
    {
        "Altitude(m)": 702728.6006281669,
        "Argument of Periapsis(deg)": 0.011929653242835719,
        "Eccentricity": 0.0,
        "Inclination(deg)": 45.0,
        "Latitude(deg)": 8.508207257027877,
        "Longitude(deg)": 142.74496532289652,
        "Mean Anomaly(deg)": 12.079526909729903,
        "RAAN(deg)": 234.98873875605165,
        "Satellite Name": "Constellation 1 1034",
        "Satellite Number": 1034,
        "Semi-Major Axis(m)": 7083131.272910544,
        "Time(s)": 199
    }
]